STARLINK-1719_new
1 16331C 20062G   21326.14392617 -.00015662  00000-0 -10493-2 0  3269
2 16331  53.0535 218.1063 0002167  73.5194 329.7466 15.06414384    10
STARLINK-1719_old
1 26331C 20062G   21325.17865113  .00010366  00000-0  69443-3 0  3250
2 26331  53.0541 222.4394 0002205  71.8859 133.7473 15.06392313    12
